MOLNIYA 2-9             
1 07276U 74026A   19359.03803487 -.00000155  00000-0  14429-2 0  9995
2 07276  63.8707   9.8756 6835360 288.8586  12.2060  2.45096655227167
MOLNIYA 2-10            
1 07376U 74056A   19359.52455722 -.00000739  00000-0  00000+0 0  9993
2 07376  63.5247 186.5338 6794659 293.4224  11.4012  2.01186736332201
MOLNIYA 1-S             
1 07392U 74060A   19359.78210383 -.00000301  00000-0  00000-0 0  9992
2 07392   7.2835 295.8651 0007051 184.5714 356.9457  1.00231042110450
MOLNIYA 1-29            
1 07780U 75036A   19359.00443475 -.00000111  00000-0 -19689-3 0  9998
2 07780  62.7927 339.0352 7436247 286.9615   9.2110  2.00659549327489
MOLNIYA 2-14            
1 08195U 75081A   19359.09051550  .00001070  00000-0 -10100-2 0  9999
2 08195  62.9324 304.9106 7370320 291.8325   8.7163  2.02054883324619
MOLNIYA 1-32            
1 08601U 76006A   19358.61533682 -.00001518  00000-0  50965-3 0  9998
2 08601  62.4669  77.7697 7370386 277.1049  11.9770  2.00042267320886
MOLNIYA 2-17            
1 09829U 77010A   19357.20827721  .00001180 -78550-5  00000+0 0  9997
2 09829  61.5142  71.3074 5948918 278.9783  36.2005  4.29613948314313
MOLNIYA 1-36            
1 09880U 77021A   19359.19180463 -.00000230  00000-0  86422-4 0  9993
2 09880  62.3201  50.9574 7478757 282.1653  10.0264  2.00920664211245
MOLNIYA 3-8             
1 10455U 77105A   19358.48975377  .00001215  00000-0  68677-2 0  9996
2 10455  62.2580 135.8113 7206421 275.1474  13.6784  2.00765551308960
MOLNIYA 1-40            
1 10925U 78055A   19358.56890314  .00000980  00000-0  10050-1 0  9998
2 10925  62.4689 168.8316 7038878 277.7886  14.0762  2.00604241304548
MOLNIYA 3-10            
1 11057U 78095A   19359.65132111  .00002247  00000-0  34294-3 0  9990
2 11057  62.7168  25.8510 5976829 294.9302  15.6053  4.09225621346668
MOLNIYA 3-13            
1 11896U 80063A   19357.77857493  .00000549  00000-0  68742-3 0  9995
2 11896  62.5692 253.2082 7241546 274.8517  13.6379  2.00625580288928
MOLNIYA 1-49            
1 12156U 81009A   19358.06019791  .00001082  00000-0  16207-2 0  9991
2 12156  62.4168 300.7100 7248803 250.4269  23.5509  2.05696182202877
MOLNIYA 1-52            
1 13012U 81123A   19359.13906860 -.00001158  00000-0  00000-0 0  9998
2 13012  63.6727  51.5180 7197262 248.5138  25.1143  2.00441351278413
MOLNIYA 1-53            
1 13070U 82015A   19359.42672088 -.00000111  00000-0  72389-3 0  9997
2 13070  62.4174 350.1708 7502650 273.4778  11.9589  2.00713372277109
MOLNIYA 3-20            
1 13875U 83015A   19359.86466108  .00000470  00000-0  12900-1 0  9991
2 13875  63.5119 122.4567 7050624 255.8338 348.4296  2.00395748205557
MOLNIYA 1-56            
1 13890U 83019A   19359.30605458 -.00000424  00000-0  00000-0 0  9991
2 13890  63.2578 147.1782 7034288 260.5691  70.1843  1.99951788268506
MOLNIYA 1-62            
1 15214U 84089A   19358.49799206  .00001101  00000-0  24162-2 0  9994
2 15214  62.7309 156.7844 7204104 264.2070  17.4001  1.97925699226310
MOLNIYA 1-63            
1 15429U 84124A   19357.09735903 -.00000979  00000-0  00000+0 0  9996
2 15429  63.7771 252.8362 6656890 267.6687 340.6292  2.00525486256601
MOLNIYA 3-24            
1 15738U 85040A   19358.11399184  .00000157  00000-0  45662-2 0  9991
2 15738  63.8903 233.0336 6456678 253.7939 343.3600  2.55628383280736
MOLNIYA 3-27            
1 16393U 85117A   19357.50262118  .00000231  00000-0  23050-1 0  9991
2 16393  64.6673 183.0049 6483333 259.5497  68.7181  2.12398835254915
MOLNIYA 1-69            
1 17078U 86089A   19356.43254090  .00000254  00000-0  12062-2 0  9999
2 17078  64.1708 274.6947 6784325 267.4491 283.0231  2.00647033242583
MOLNIYA 3-31            
1 17328U 87008A   19358.70358459  .00000592  00000-0  00000+0 0  9996
2 17328  63.8332 222.9630 6702440 262.3256  22.9488  2.00584759237725
MOLNIYA 1-71            
1 18946U 88017A   19359.12730167  .00000127  00000-0 -17247-1 0  9999
2 18946  63.5560 224.8125 6832012 262.6136 345.7730  2.00646964232932
MOLNIYA 1-75            
1 19807U 89014A   19358.56117418 -.00001394  00000-0 -69422-2 0  9990
2 19807  64.2401  33.0424 7041763 272.4679  15.6661  2.00262958225913
MOLNIYA 1-80            
1 21118U 91012A   19357.40358411  .00000553  00000-0  00000-0 0  9990
2 21118  64.0653  77.0119 6844720 287.3885  12.6702  2.05242384212380
MOLNIYA 3-40            
1 21196U 91022A   19359.44671417  .00001053  00000-0  00000-0 0  9993
2 21196  64.2686  69.5892 6879732 284.4853  13.2188  2.02996737211325
MOLNIYA 1-81            
1 21426U 91043A   19359.33142890  .00000151  00000-0  00000+0 0  9995
2 21426  63.9175  96.4731 6932940 273.0859  16.3951  2.00613620208998
MOLNIYA 3-41            
1 21706U 91065A   19357.64020865 -.00000338  00000-0  87959-1 0  9997
2 21706  64.2357 261.1809 6822854 266.3976  15.5668  2.04348978208372
MOLNIYA 3-42            
1 22178U 92067A   19359.30884401 -.00000112  00000-0  00000+0 0  9993
2 22178  64.7056 321.8305 6808388 279.6128  15.1187  2.20433413204560
MOLNIYA 1-86            
1 22671U 93035A   19359.83102474  .00000123  00000-0  28074-3 0  9994
2 22671  63.1676  39.4980 4826563 354.4324   1.7783  5.62594134301404
MOLNIYA 1-87            
1 22949U 93079A   19359.53477719 -.00000950  00000-0  29620-1 0  9999
2 22949  63.3698 191.8945 6890290 289.8642  11.7631  2.02877849190920
MOLNIYA 1-88            
1 23420U 94081A   19360.14478765 -.00000020  00000-0  19901-2 0  9999
2 23420  63.9611  47.5146 6037904 295.9752  14.9365  3.34495379216693
MOLNIYA 3-47            
1 23642U 95042A   19357.14542352  .00001233  00000-0  75868-1 0  9992
2 23642  63.2037 175.4784 6860500 289.0462  12.1154  2.01964234178711
MOLNIYA 1-90            
1 24960U 97054A   19360.38455320 -.00000063  00000-0  31751-3 0  9995
2 24960  63.2978  22.9633 6401952 300.3046  11.6559  3.18688456179278
MOLNIYA 1-91            
1 25485U 98054A   19359.75902041  .00000180  00000-0  27358-3 0  9992
2 25485  62.7332 306.1262 7181800 287.1797  10.7295  2.36429454156998
MOLNIYA 3-50            
1 25847U 99036A   19359.38859568  .00000248  00000-0 -29501-2 0  9996
2 25847  62.1744 118.3522 7289993 273.7710  13.4842  2.00580546149969
